NORAD_CAT_ID,OBJECT_NAME,OBJECT_TYPE,EPOCH,MEAN_MOTION,ECCENTRICITY,INCLINATION,RA_OF_ASC_NODE,ARG_OF_PERICENTER,MEAN_ANOMALY,BSTAR,MEAN_MOTION_DOT,MEAN_MOTION_DDOT,TLE_LINE0,TLE_LINE1,TLE_LINE2,SEMIMAJOR_AXIS,PERIOD,APOGEE,PERIGEE,DECAYED
51727.0,STARLINK-3532,PAYLOAD,2022-07-17 22:00:00,15.08826658,0.0002048,53.214,183.1867,48.7748,146.386,0.0019062,0.00030169,0.0,0 STARLINK-3532,1 51727U 22016P   22198.91667824  .00030169  00000-0  19062-2 0  9997,2 51727  53.2140 183.1867 0002048  48.7748 146.3860 15.08826658  1306,6917.920999999999,95.438,541.203,538.369,0.0
51727.0,STARLINK-3532,PAYLOAD,2022-07-18 06:00:00,15.08837678,0.0002245,53.214,181.6921,44.7438,162.0069,-0.00010449,-1.951e-05,0.0,0 STARLINK-3532,1 51727U 22016P   22199.25001157 -.00001951  00000-0 -10449-3 0  9996,2 51727  53.2140 181.6921 0002245  44.7438 162.0069 15.08837678 23631,6917.887,95.438,541.306,538.1990000000002,0.0
51727.0,STARLINK-3532,PAYLOAD,2022-07-18 14:00:01,15.08871663,0.0002174,53.2141,180.195,43.4264,174.9108,-0.0048332,-0.00076462,0.0,0 STARLINK-3532,1 51727U 22016P   22199.58334491 -.00076462  00000-0 -48332-2 0  9992,2 51727  53.2141 180.1950 0002174  43.4264 174.9108 15.08871663  1300,6917.784000000002,95.436,541.153,538.145,0.0
51727.0,STARLINK-3532,PAYLOAD,2022-07-18 22:00:00,15.08812446,0.0002063,53.2143,178.6975,47.68,182.2599,0.0017515,0.00027676,0.0,0 STARLINK-3532,1 51727U 22016P   22199.91667824  .00027676  00000-0  17515-2 0  9998,2 51727  53.2143 178.6975 0002063  47.6800 182.2599 15.08812446  1300,6917.965,95.439,541.257,538.4019999999998,0.0
51727.0,STARLINK-3532,PAYLOAD,2022-07-19 14:00:01,15.08851374,0.000222,53.2144,175.7057,43.9318,209.1628,-0.0019751,-0.00031595,0.0,0 STARLINK-3532,1 51727U 22016P   22200.58334491 -.00031595  00000-0 -19751-2 0  9996,2 51727  53.2144 175.7057 0002220  43.9318 209.1628 15.08851374 23835,6917.846,95.437,541.246,538.175,0.0
51727.0,STARLINK-3532,PAYLOAD,2022-07-19 22:00:00,15.08884158,0.0002137,53.2157,174.2071,48.4629,216.2202,-0.0068976,-0.00108549,0.0,0 STARLINK-3532,1 51727U 22016P   22200.91667824 -.00108549  00000-0 -68976-2 0  9999,2 51727  53.2157 174.2071 0002137  48.4629 216.2202 15.08884158  1302,6917.745,95.435,541.089,538.132,0.0
51727.0,STARLINK-3532,PAYLOAD,2022-07-20 06:00:00,15.08851804,0.0002345,53.2147,172.7137,45.2837,231.0228,0.00049472,7.597e-05,0.0,0 STARLINK-3532,1 51727U 22016P   22201.25001157  .00007597  00000-0  49472-3 0  9998,2 51727  53.2147 172.7137 0002345  45.2837 231.0228 15.08851804 23932,6917.844,95.437,541.332,538.087,0.0
51727.0,STARLINK-3532,PAYLOAD,2022-07-20 14:00:01,15.08873784,0.0002198999999999,53.2147,171.2164,44.5199,243.3981,-0.0036268999999999,-0.00057604,0.0,0 STARLINK-3532,1 51727U 22016P   22201.58334491 -.00057604  00000-0 -36269-2 0  9999,2 51727  53.2147 171.2164 0002199  44.5199 243.3981 15.08873784  1306,6917.776999999999,95.435,541.163,538.121,0.0
51727.0,STARLINK-3532,PAYLOAD,2022-07-20 22:00:01,15.08755852,0.0002108,53.2165,169.7175,44.1143,255.4445,0.0066055,0.00106182,0.0,0 STARLINK-3532,1 51727U 22016P   22201.91668981  .00106182  00000-0  66055-2 0  9990,2 51727  53.2165 169.7175 0002108  44.1143 255.4445 15.08755852 24034,6918.138000000001,95.443,541.461,538.544,0.0
51727.0,STARLINK-3532,PAYLOAD,2022-07-21 14:00:01,15.0885726,0.0002189999999999,53.2147,166.727,45.0741,277.6519,-0.0019458,-0.00031138,0.0,0 STARLINK-3532,1 51727U 22016P   22202.58335648 -.00031138  00000-0 -19458-2 0  9990,2 51727  53.2147 166.7270 0002190  45.0741 277.6519 15.08857260 24137,6917.828,95.436,541.2080000000002,538.178,0.0
51727.0,STARLINK-3532,PAYLOAD,2022-07-21 22:00:00,15.08859032,0.0002059,53.2149,165.23,49.1557,285.1075,-0.0019876,-0.00031799,0.0,0 STARLINK-3532,1 51727U 22016P   22202.91667824 -.00031799  00000-0 -19876-2 0  9998,2 51727  53.2149 165.2300 0002059  49.1557 285.1075 15.08859032  1305,6917.821999999999,95.436,541.112,538.263,0.0
51727.0,STARLINK-3532,PAYLOAD,2022-07-22 06:00:00,15.08818059,0.0002223,53.2147,163.7353,44.0611,301.8141,0.001381,0.00021746,0.0,0 STARLINK-3532,1 51727U 22016P   22203.25001157  .00021746  00000-0  13810-2 0  9998,2 51727  53.2147 163.7353 0002223  44.0611 301.8141 15.08818059  1306,6917.946999999999,95.439,541.35,538.275,0.0
51727.0,STARLINK-3532,PAYLOAD,2022-07-22 22:00:00,15.08851415,0.0001995,53.2146,160.7409,49.9113,319.1317,-8.9154e-05,-1.707e-05,0.0,0 STARLINK-3532,1 51727U 22016P   22203.91667824 -.00001707  00000-0 -89154-4 0  9993,2 51727  53.2146 160.7409 0001995  49.9113 319.1317 15.08851415  1300,6917.845,95.437,541.091,538.33,0.0
51727.0,STARLINK-3532,PAYLOAD,2022-07-23 08:00:01,15.08804301,0.0002130999999999,53.2141,158.8721,42.7976,70.7579,0.0024838,0.00039425,0.0,0 STARLINK-3532,1 51727U 22016P   22204.33334491  .00039425  00000-0  24838-2 0  9993,2 51727  53.2141 158.8721 0002131  42.7976  70.7579 15.08804301 24409,6917.99,95.44,541.3290000000002,538.38,0.0
51727.0,STARLINK-3532,PAYLOAD,2022-07-23 14:00:01,15.08833538,0.0002020999999999,53.2141,157.7483,46.4412,345.8527,-0.0011015999999999,-0.00017775,0.0,0 STARLINK-3532,1 51727U 22016P   22204.58335648 -.00017775  00000-0 -11016-2 0  9995,2 51727  53.2141 157.7483 0002021  46.4412 345.8527 15.08833538  1303,6917.9,95.438,541.163,538.367,0.0
51727.0,STARLINK-3532,PAYLOAD,2022-07-23 22:00:00,15.08841353,0.0001976999999999,53.2141,156.2519,50.5551,353.2546,0.00017615,2.516e-05,0.0,0 STARLINK-3532,1 51727U 22016P   22204.91667824  .00002516  00000-0  17615-3 0  9993,2 51727  53.2141 156.2519 0001977  50.5551 353.2546 15.08841353  1304,6917.876,95.437,541.109,538.374,0.0
51727.0,STARLINK-3532,PAYLOAD,2022-07-24 00:00:00,15.08852174,0.0002023,53.2141,155.8782,49.3151,87.3913,-0.0014637,-0.00023516,0.0,0 STARLINK-3532,1 51727U 22016P   22205.00001157 -.00023516  00000-0 -14637-2 0  9990,2 51727  53.2141 155.8782 0002023  49.3151  87.3913 15.08852174 24509,6917.843000000003,95.437,541.1080000000002,538.309,0.0
51727.0,STARLINK-3532,PAYLOAD,2022-07-24 14:00:01,15.08856236,0.0002006999999999,53.2138,153.2591,47.7661,19.232,-0.0035594,-0.00056518,0.0,0 STARLINK-3532,1 51727U 22016P   22205.58334491 -.00056518  00000-0 -35594-2 0  9996,2 51727  53.2138 153.2591 0002007  47.7661  19.2320 15.08856236  1307,6917.831,95.437,541.0840000000002,538.307,0.0
51727.0,STARLINK-3532,PAYLOAD,2022-07-24 22:00:00,15.08776726,0.0001848,53.2149,151.7617,54.8168,23.6548,0.0058284999999999,0.00093544,0.0,0 STARLINK-3532,1 51727U 22016P   22205.91667824  .00093544  00000-0  58285-2 0  9992,2 51727  53.2149 151.7617 0001848  54.8168  23.6548 15.08776726  1300,6918.074000000001,95.442,541.217,538.66,0.0
51727.0,STARLINK-3532,PAYLOAD,2022-07-25 06:00:00,15.09001675,0.0001909,53.2164,150.2673,51.277,38.738,-0.011948,-0.00186391,0.0,0 STARLINK-3532,1 51727U 22016P   22206.25001157 -.00186391  00000-0 -11948-1 0  9990,2 51727  53.2164 150.2673 0001909  51.2770  38.7380 15.09001675 24694,6917.386,95.427,540.572,537.931,0.0
51727.0,STARLINK-3532,PAYLOAD,2022-07-25 14:00:01,15.08833405,0.0001971,53.214,148.7701,53.5943,48.0334,-0.00030051,-5.067e-05,0.0,0 STARLINK-3532,1 51727U 22016P   22206.58334491 -.00005067  00000-0 -30051-3 0  9994,2 51727  53.2140 148.7701 0001971  53.5943  48.0334 15.08833405  1307,6917.901,95.438,541.129,538.4019999999998,0.0
51727.0,STARLINK-3532,PAYLOAD,2022-07-25 22:00:00,15.08851156,0.0002029,53.2142,147.2737,56.6154,56.5946,-0.00071662,-0.00011679,0.0,0 STARLINK-3532,1 51727U 22016P   22206.91667824 -.00011679  00000-0 -71662-3 0  9999,2 51727  53.2142 147.2737 0002029  56.6154  56.5946 15.08851156  1301,6917.846,95.437,541.115,538.308,0.0
51727.0,STARLINK-3532,PAYLOAD,2022-07-26 14:00:01,15.08846299,0.0002055,53.2146,144.2809,54.9038,81.5106,0.00029838,4.465e-05,0.0,0 STARLINK-3532,1 51727U 22016P   22207.58334491  .00004465  00000-0  29838-3 0  9995,2 51727  53.2146 144.2809 0002055  54.9038  81.5106 15.08846299  1301,6917.861,95.437,541.148,538.305,0.0
51727.0,STARLINK-3532,PAYLOAD,2022-07-26 22:00:00,15.08869447,0.0002130999999999,53.2149,142.7846,57.5834,90.4312,-0.0009203,-0.00014917,0.0,0 STARLINK-3532,1 51727U 22016P   22207.91667824 -.00014917  00000-0 -92030-3 0  9990,2 51727  53.2149 142.7846 0002131  57.5834  90.4312 15.08869447  1304,6917.79,95.436,541.13,538.181,0.0
51727.0,STARLINK-3532,PAYLOAD,2022-07-27 14:00:01,15.08843658,0.000206,53.2153,139.7916,54.9889,116.2753,-0.00039062,-6.500000000000001e-05,0.0,0 STARLINK-3532,1 51727U 22016P   22208.58334491 -.00006500  00000-0 -39062-3 0  9990,2 51727  53.2153 139.7916 0002060  54.9889 116.2753 15.08843658  1307,6917.869000000002,95.437,541.159,538.309,0.0
51727.0,STARLINK-3532,PAYLOAD,2022-07-27 16:00:00,15.08821946,0.0002039,53.2153,139.4172,56.0271,208.1436,0.0024505,0.00038909,0.0,0 STARLINK-3532,1 51727U 22016P   22208.66667824  .00038909  00000-0  24505-2 0  9999,2 51727  53.2153 139.4172 0002039  56.0271 208.1436 15.08821946 25055,6917.936,95.439,541.211,538.39,0.0
51727.0,STARLINK-3532,PAYLOAD,2022-07-27 22:00:00,15.08859994,0.0002116,53.2157,138.2956,56.8621,125.9955,-0.0010583,-0.00017101,0.0,0 STARLINK-3532,1 51727U 22016P   22208.91667824 -.00017101  00000-0 -10583-2 0  9991,2 51727  53.2157 138.2956 0002116  56.8621 125.9955 15.08859994  1307,6917.819,95.436,541.148,538.22,0.0
51727.0,STARLINK-3532,PAYLOAD,2022-07-28 08:00:01,15.08856821,0.0002188,53.2155,136.4262,51.5658,235.7948,-0.00096851,-0.00015677,0.0,0 STARLINK-3532,1 51727U 22016P   22209.33334491 -.00015677  00000-0 -96851-3 0  9998,2 51727  53.2155 136.4262 0002188  51.5658 235.7948 15.08856821 25153,6917.829000000002,95.436,541.2080000000002,538.18,0.0
51727.0,STARLINK-3532,PAYLOAD,2022-07-28 14:00:01,15.08839657,0.0002028,53.2159,135.3025,55.4397,150.6398,-0.00067005,-0.00010936,0.0,0 STARLINK-3532,1 51727U 22016P   22209.58334491 -.00010936  00000-0 -67005-3 0  9997,2 51727  53.2159 135.3025 0002028  55.4397 150.6398 15.08839657  1301,6917.880999999999,95.438,541.149,538.3430000000002,0.0
